<?xml version="1.0" encoding="UTF-8"?>
<kml xmlns="http://www.opengis.net/kml/2.2"><Document>
<Placemark><name>square</name><description>1km-ish square near Bhopal</description>
<Polygon><outerBoundaryIs><LinearRing><coordinates>
77.40,23.25,0 77.41,23.25,0 77.41,23.26,0 77.40,23.26,0 77.40,23.25,0
</coordinates></LinearRing></outerBoundaryIs></Polygon></Placemark>
<Placemark><name>road</name><LineString><coordinates>
77.40,23.25,0 77.42,23.25,0
</coordinates></LineString></Placemark>
<Placemark><name>pin</name><Point><coordinates>77.40,23.25,0</coordinates></Point></Placemark>
<Placemark><name>nogeom</name></Placemark>
<Placemark><name>mixed</name><MultiGeometry>
<Point><coordinates>77.4,23.2,0</coordinates></Point>
<LineString><coordinates>77.4,23.2,0 77.5,23.2,0</coordinates></LineString>
</MultiGeometry></Placemark>
</Document></kml>
